[{"OBJECT_NAME":"STARLINK-5507","OBJECT_ID":"2023-021L","EPOCH":"2025-09-13T01:42:04.826016","MEAN_MOTION":14.98330395,"ECCENTRICITY":0.00035946,"INCLINATION":69.998,"RA_OF_ASC_NODE":292.2546,"ARG_OF_PERICENTER":270.0818,"MEAN_ANOMALY":89.9929,"EPHEMERIS_TYPE":0,"CLASSIFICATION_TYPE":"U","NORAD_CAT_ID":55638,"ELEMENT_SET_NO":999,"REV_AT_EPOCH":14169,"BSTAR":4.480165e-6,"MEAN_MOTION_DOT":-4.0e-7,"MEAN_MOTION_DDOT":0},{"OBJECT_NAME":"STARLINK-5508","OBJECT_ID":"2023-021M","EPOCH":"2025-09-13T01:17:57.428160","MEAN_MOTION":14.98329132,"ECCENTRICITY":0.00036065,"INCLINATION":69.9977,"RA_OF_ASC_NODE":272.3238,"ARG_OF_PERICENTER":268.5501,"MEAN_ANOMALY":91.5245,"EPHEMERIS_TYPE":0,"CLASSIFICATION_TYPE":"U","NORAD_CAT_ID":55639,"ELEMENT_SET_NO":999,"REV_AT_EPOCH":14218,"BSTAR":-1.113861e-5,"MEAN_MOTION_DOT":-2.26e-6,"MEAN_MOTION_DDOT":0},{"OBJECT_NAME":"STARLINK-5069","OBJECT_ID":"2023-021N","EPOCH":"2025-09-13T01:11:42.414144","MEAN_MOTION":14.98328288,"ECCENTRICITY":0.00039713,"INCLINATION":69.9974,"RA_OF_ASC_NODE":272.3066,"ARG_OF_PERICENTER":269.2573,"MEAN_ANOMALY":90.8131,"EPHEMERIS_TYPE":0,"CLASSIFICATION_TYPE":"U","NORAD_CAT_ID":55640,"ELEMENT_SET_NO":999,"REV_AT_EPOCH":14218,"BSTAR":2.7997783e-5,"MEAN_MOTION_DOT":2.41e-6,"MEAN_MOTION_DDOT":0},{"OBJECT_NAME":"STARLINK-5065","OBJECT_ID":"2023-021P","EPOCH":"2025-09-13T00:17:38.821632","MEAN_MOTION":14.98333422,"ECCENTRICITY":0.00032244,"INCLINATION":69.9948,"RA_OF_ASC_NODE":272.5756,"ARG_OF_PERICENTER":269.0225,"MEAN_ANOMALY":91.0565,"EPHEMERIS_TYPE":0,"CLASSIFICATION_TYPE":"U","NORAD_CAT_ID":55641,"ELEMENT_SET_NO":999,"REV_AT_EPOCH":14217,"BSTAR":1.3696437e-5,"MEAN_MOTION_DOT":7.0e-7,"MEAN_MOTION_DDOT":0},{"OBJECT_NAME":"STARLINK-5483","OBJECT_ID":"2023-021R","EPOCH":"2025-09-13T00:29:40.036992","MEAN_MOTION":14.98330791,"ECCENTRICITY":0.00036336,"INCLINATION":69.9979,"RA_OF_ASC_NODE":272.6026,"ARG_OF_PERICENTER":270.105,"MEAN_ANOMALY":89.9693,"EPHEMERIS_TYPE":0,"CLASSIFICATION_TYPE":"U","NORAD_CAT_ID":55643,"ELEMENT_SET_NO":999,"REV_AT_EPOCH":14217,"BSTAR":-2.436636e-6,"MEAN_MOTION_DOT":-1.22e-6,"MEAN_MOTION_DDOT":0},{"OBJECT_NAME":"STARLINK-5502","OBJECT_ID":"2023-021S","EPOCH":"2025-09-11T11:08:32.899488","MEAN_MOTION":14.98322745,"ECCENTRICITY":0.00034084,"INCLINATION":69.9977,"RA_OF_ASC_NODE":276.4073,"ARG_OF_PERICENTER":270.0692,"MEAN_ANOMALY":90.0076,"EPHEMERIS_TYPE":0,"CLASSIFICATION_TYPE":"U","NORAD_CAT_ID":55644,"ELEMENT_SET_NO":999,"REV_AT_EPOCH":14194,"BSTAR":5.1255446e-5,"MEAN_MOTION_DOT":5.18e-6,"MEAN_MOTION_DDOT":0},{"OBJECT_NAME":"STARLINK-5510","OBJECT_ID":"2023-021V","EPOCH":"2025-09-13T07:12:12.149568","MEAN_MOTION":14.98333359,"ECCENTRICITY":0.0003495,"INCLINATION":69.9986,"RA_OF_ASC_NODE":271.5755,"ARG_OF_PERICENTER":267.3168,"MEAN_ANOMALY":92.7591,"EPHEMERIS_TYPE":0,"CLASSIFICATION_TYPE":"U","NORAD_CAT_ID":55647,"ELEMENT_SET_NO":999,"REV_AT_EPOCH":14222,"BSTAR":-6.0101301e-5,"MEAN_MOTION_DOT":-8.1e-6,"MEAN_MOTION_DDOT":0},{"OBJECT_NAME":"STARLINK-5501","OBJECT_ID":"2023-021W","EPOCH":"2025-09-13T01:29:45.143520","MEAN_MOTION":14.98324215,"ECCENTRICITY":0.0003422,"INCLINATION":69.9967,"RA_OF_ASC_NODE":272.3521,"ARG_OF_PERICENTER":267.3293,"MEAN_ANOMALY":92.7475,"EPHEMERIS_TYPE":0,"CLASSIFICATION_TYPE":"U","NORAD_CAT_ID":55648,"ELEMENT_SET_NO":999,"REV_AT_EPOCH":14218,"BSTAR":4.2291738e-5,"MEAN_MOTION_DOT":4.11e-6,"MEAN_MOTION_DDOT":0},{"OBJECT_NAME":"STARLINK-5469","OBJECT_ID":"2023-021X","EPOCH":"2025-09-13T07:24:13.257792","MEAN_MOTION":14.98321869,"ECCENTRICITY":0.00026706,"INCLINATION":69.997,"RA_OF_ASC_NODE":271.6046,"ARG_OF_PERICENTER":262.5145,"MEAN_ANOMALY":97.5711,"EPHEMERIS_TYPE":0,"CLASSIFICATION_TYPE":"U","NORAD_CAT_ID":55649,"ELEMENT_SET_NO":999,"REV_AT_EPOCH":14222,"BSTAR":-0.00014258369,"MEAN_MOTION_DOT":-1.793e-5,"MEAN_MOTION_DDOT":0},{"OBJECT_NAME":"STARLINK-5494","OBJECT_ID":"2023-021Y","EPOCH":"2025-09-13T01:17:43.208448","MEAN_MOTION":14.98328565,"ECCENTRICITY":0.00034446,"INCLINATION":69.9972,"RA_OF_ASC_NODE":272.3227,"ARG_OF_PERICENTER":269.2586,"MEAN_ANOMALY":90.8178,"EPHEMERIS_TYPE":0,"CLASSIFICATION_TYPE":"U","NORAD_CAT_ID":55650,"ELEMENT_SET_NO":999,"REV_AT_EPOCH":14218,"BSTAR":-3.422291e-6,"MEAN_MOTION_DOT":-1.34e-6,"MEAN_MOTION_DDOT":0},{"OBJECT_NAME":"STARLINK-5506","OBJECT_ID":"2023-021Z","EPOCH":"2025-09-12T11:16:33.208320","MEAN_MOTION":14.98330502,"ECCENTRICITY":0.00032825,"INCLINATION":69.9971,"RA_OF_ASC_NODE":273.8968,"ARG_OF_PERICENTER":270.5313,"MEAN_ANOMALY":89.547,"EPHEMERIS_TYPE":0,"CLASSIFICATION_TYPE":"U","NORAD_CAT_ID":55651,"ELEMENT_SET_NO":999,"REV_AT_EPOCH":14209,"BSTAR":4.879258e-6,"MEAN_MOTION_DOT":-3.5e-7,"MEAN_MOTION_DDOT":0},{"OBJECT_NAME":"STARLINK-5487","OBJECT_ID":"2023-021AA","EPOCH":"2025-09-12T18:41:09.639456","MEAN_MOTION":14.98327902,"ECCENTRICITY":0.00035747,"INCLINATION":69.9989,"RA_OF_ASC_NODE":272.9672,"ARG_OF_PERICENTER":270.1119,"MEAN_ANOMALY":89.963,"EPHEMERIS_TYPE":0,"CLASSIFICATION_TYPE":"U","NORAD_CAT_ID":55652,"ELEMENT_SET_NO":999,"REV_AT_EPOCH":14214,"BSTAR":-6.399426e-6,"MEAN_MOTION_DOT":-1.69e-6,"MEAN_MOTION_DDOT":0},{"OBJECT_NAME":"STARLINK-5067","OBJECT_ID":"2023-021AB","EPOCH":"2025-09-13T07:06:11.579904","MEAN_MOTION":14.98319836,"ECCENTRICITY":0.0003601,"INCLINATION":69.9974,"RA_OF_ASC_NODE":271.5616,"ARG_OF_PERICENTER":271.1035,"MEAN_ANOMALY":88.9712,"EPHEMERIS_TYPE":0,"CLASSIFICATION_TYPE":"U","NORAD_CAT_ID":55653,"ELEMENT_SET_NO":999,"REV_AT_EPOCH":14222,"BSTAR":-0.00013839784,"MEAN_MOTION_DOT":-1.744e-5,"MEAN_MOTION_DDOT":0},{"OBJECT_NAME":"STARLINK-5070","OBJECT_ID":"2023-021AC","EPOCH":"2025-09-13T00:23:39.541632","MEAN_MOTION":14.98331669,"ECCENTRICITY":0.00032523,"INCLINATION":69.9963,"RA_OF_ASC_NODE":272.594,"ARG_OF_PERICENTER":269.0874,"MEAN_ANOMALY":90.9913,"EPHEMERIS_TYPE":0,"CLASSIFICATION_TYPE":"U","NORAD_CAT_ID":55654,"ELEMENT_SET_NO":999,"REV_AT_EPOCH":14217,"BSTAR":4.145458e-6,"MEAN_MOTION_DOT":-4.4e-7,"MEAN_MOTION_DDOT":0},{"OBJECT_NAME":"STARLINK-5267","OBJECT_ID":"2023-021AD","EPOCH":"2025-09-13T06:05:49.920864","MEAN_MOTION":14.98325475,"ECCENTRICITY":0.00039497,"INCLINATION":69.9999,"RA_OF_ASC_NODE":251.9431,"ARG_OF_PERICENTER":268.8194,"MEAN_ANOMALY":91.2512,"EPHEMERIS_TYPE":0,"CLASSIFICATION_TYPE":"U","NORAD_CAT_ID":55655,"ELEMENT_SET_NO":999,"REV_AT_EPOCH":14269,"BSTAR":4.6514268e-5,"MEAN_MOTION_DOT":4.62e-6,"MEAN_MOTION_DDOT":0},{"OBJECT_NAME":"STARLINK-5326","OBJECT_ID":"2023-021AE","EPOCH":"2025-09-13T07:00:10.488384","MEAN_MOTION":14.98331659,"ECCENTRICITY":0.00037819,"INCLINATION":69.998,"RA_OF_ASC_NODE":271.5462,"ARG_OF_PERICENTER":271.4431,"MEAN_ANOMALY":88.6294,"EPHEMERIS_TYPE":0,"CLASSIFICATION_TYPE":"U","NORAD_CAT_ID":55656,"ELEMENT_SET_NO":999,"REV_AT_EPOCH":14222,"BSTAR":1.9946791e-5,"MEAN_MOTION_DOT":1.45e-6,"MEAN_MOTION_DDOT":0},{"OBJECT_NAME":"STARLINK-5328","OBJECT_ID":"2023-021AF","EPOCH":"2025-09-13T06:17:50.882208","MEAN_MOTION":14.98322585,"ECCENTRICITY":0.00033647,"INCLINATION":69.9984,"RA_OF_ASC_NODE":251.9718,"ARG_OF_PERICENTER":266.6279,"MEAN_ANOMALY":93.4496,"EPHEMERIS_TYPE":0,"CLASSIFICATION_TYPE":"U","NORAD_CAT_ID":55657,"ELEMENT_SET_NO":999,"REV_AT_EPOCH":14270,"BSTAR":-2.3531881e-5,"MEAN_MOTION_DOT":-3.74e-6,"MEAN_MOTION_DDOT":0},{"OBJECT_NAME":"STARLINK-5307","OBJECT_ID":"2023-021AG","EPOCH":"2025-09-13T00:53:40.483968","MEAN_MOTION":14.98330039,"ECCENTRICITY":0.00036546,"INCLINATION":69.9986,"RA_OF_ASC_NODE":272.2638,"ARG_OF_PERICENTER":269.1551,"MEAN_ANOMALY":90.9189,"EPHEMERIS_TYPE":0,"CLASSIFICATION_TYPE":"U","NORAD_CAT_ID":55658,"ELEMENT_SET_NO":999,"REV_AT_EPOCH":14218,"BSTAR":4.845126e-6,"MEAN_MOTION_DOT":-3.5e-7,"MEAN_MOTION_DDOT":0},{"OBJECT_NAME":"STARLINK-5477","OBJECT_ID":"2023-021AH","EPOCH":"2025-09-13T06:11:48.579360","MEAN_MOTION":14.9833081,"ECCENTRICITY":0.00032344,"INCLINATION":69.9986,"RA_OF_ASC_NODE":251.9578,"ARG_OF_PERICENTER":270.4944,"MEAN_ANOMALY":89.5845,"EPHEMERIS_TYPE":0,"CLASSIFICATION_TYPE":"U","NORAD_CAT_ID":55659,"ELEMENT_SET_NO":999,"REV_AT_EPOCH":14269,"BSTAR":-0.0003226001,"MEAN_MOTION_DOT":-3.94e-5,"MEAN_MOTION_DDOT":0},{"OBJECT_NAME":"STARLINK-5467","OBJECT_ID":"2023-021AJ","EPOCH":"2025-09-12T22:35:07.216800","MEAN_MOTION":14.98334946,"ECCENTRICITY":0.00034807,"INCLINATION":69.9983,"RA_OF_ASC_NODE":252.4629,"ARG_OF_PERICENTER":268.8795,"MEAN_ANOMALY":91.1965,"EPHEMERIS_TYPE":0,"CLASSIFICATION_TYPE":"U","NORAD_CAT_ID":55660,"ELEMENT_SET_NO":999,"REV_AT_EPOCH":14266,"BSTAR":0.00015202011,"MEAN_MOTION_DOT":1.722e-5,"MEAN_MOTION_DDOT":0},{"OBJECT_NAME":"STARLINK-5475","OBJECT_ID":"2023-021AK","EPOCH":"2025-09-12T23:24:06.338304","MEAN_MOTION":14.97710576,"ECCENTRICITY":0.00019095,"INCLINATION":69.998,"RA_OF_ASC_NODE":252.5746,"ARG_OF_PERICENTER":304.7521,"MEAN_ANOMALY":55.3457,"EPHEMERIS_TYPE":0,"CLASSIFICATION_TYPE":"U","NORAD_CAT_ID":55661,"ELEMENT_SET_NO":999,"REV_AT_EPOCH":14266,"BSTAR":-0.0068469905,"MEAN_MOTION_DOT":-0.00079581,"MEAN_MOTION_DDOT":0},{"OBJECT_NAME":"STARLINK-5479","OBJECT_ID":"2023-021AL","EPOCH":"2025-09-13T06:51:18.098496","MEAN_MOTION":14.99139058,"ECCENTRICITY":0.00035937,"INCLINATION":69.9981,"RA_OF_ASC_NODE":251.2759,"ARG_OF_PERICENTER":268.3628,"MEAN_ANOMALY":91.712,"EPHEMERIS_TYPE":0,"CLASSIFICATION_TYPE":"U","NORAD_CAT_ID":55662,"ELEMENT_SET_NO":999,"REV_AT_EPOCH":14272,"BSTAR":7.48914e-7,"MEAN_MOTION_DOT":-8.5e-7,"MEAN_MOTION_DDOT":0},{"OBJECT_NAME":"STARLINK-5473","OBJECT_ID":"2023-021AM","EPOCH":"2025-09-12T23:11:12.459552","MEAN_MOTION":14.98330434,"ECCENTRICITY":0.00034655,"INCLINATION":69.9979,"RA_OF_ASC_NODE":252.5419,"ARG_OF_PERICENTER":269.6409,"MEAN_ANOMALY":90.4353,"EPHEMERIS_TYPE":0,"CLASSIFICATION_TYPE":"U","NORAD_CAT_ID":55663,"ELEMENT_SET_NO":999,"REV_AT_EPOCH":14265,"BSTAR":1.1613901e-5,"MEAN_MOTION_DOT":4.5e-7,"MEAN_MOTION_DDOT":0}]
